{"type": "FeatureCollection", "features": [ {"type": "Feature", "properties": {"norad_id": 30358, "name": "FENGYUN 1C DEB", "group": "fengyun-1c-debris", "lat": 81.07160672269339, "lon": 106.23036913116177, "alt_km": 826.4174100170494, "timestamp": "2025-12-16T13:52:37.799159+00:00", "meta": {"OBJECT_NAME": "FENGYUN 1C DEB", "OBJECT_ID": "1999-025ABV", "EPOCH": "2025-12-15T12:14:13.600896", "MEAN_MOTION": 14.20691324, "ECCENTRICITY": 0.00826558, "INCLINATION": 98.5539, "RA_OF_ASC_NODE": 178.5364, "ARG_OF_PERICENTER": 191.5353, "MEAN_ANOMALY": 195.9433, "EPHEMERIS_TYPE": 0, "CLASSIFICATION_TYPE": "U", "NORAD_CAT_ID": 30358, "ELEMENT_SET_NO": 999, "REV_AT_EPOCH": 96957, "BSTAR": 0.0012325155, "MEAN_MOTION_DOT": 2.707e-05, "MEAN_MOTION_DDOT": 0}, "tle": {"line1": "1 30358U 99025ABV 25349.50987964  .00002707  00000+0  12325-2 0  9995", "line2": "2 30358  98.5539 178.5364 0082655 191.5353 195.9433 14.20691324969579"}}, "geometry": {"type": "Point", "coordinates": [106.23036913116177, 81.07160672269339]}}, {"type": "Feature", "properties": {"norad_id": 30359, "name": "FENGYUN 1C DEB", "group": "fengyun-1c-debris", "lat": 72.16138105557242, "lon": 37.03624817331248, "alt_km": 975.5583976540047, "timestamp": "2025-12-16T13:52:37.799170+00:00", "meta": {"OBJECT_NAME": "FENGYUN 1C DEB", "OBJECT_ID": "1999-025ABW", "EPOCH": "2025-12-15T18:26:14.817120", "MEAN_MOTION": 13.9402162, "ECCENTRICITY": 0.01454558, "INCLINATION": 101.6267, "RA_OF_ASC_NODE": 176.2448, "ARG_OF_PERICENTER": 335.0466, "MEAN_ANOMALY": 24.3702, "EPHEMERIS_TYPE": 0, "CLASSIFICATION_TYPE": "U", "NORAD_CAT_ID": 30359, "ELEMENT_SET_NO": 999, "REV_AT_EPOCH": 95111, "BSTAR": 0.0018800154, "MEAN_MOTION_DOT": 2.651e-05, "MEAN_MOTION_DDOT": 0}, "tle": {"line1": "1 30359U 99025ABW 25349.76822705  .00002651  00000+0  18800-2 0  9997", "line2": "2 30359 101.6267 176.2448 0145455 335.0466  24.3702 13.94021620951111"}}, "geometry": {"type": "Point", "coordinates": [37.03624817331248, 72.16138105557242]}}, {"type": "Feature", "properties": {"norad_id": 30360, "name": "FENGYUN 1C DEB", "group": "fengyun-1c-debris", "lat": -21.412851666700973, "lon": -123.28782532643265, "alt_km": 799.3073780914656, "timestamp": "2025-12-16T13:52:37.799181+00:00", "meta": {"OBJECT_NAME": "FENGYUN 1C DEB", "OBJECT_ID": "1999-025ABX", "EPOCH": "2025-12-15T03:35:00.745152", "MEAN_MOTION": 14.26522705, "ECCENTRICITY": 0.00313055, "INCLINATION": 98.7657, "RA_OF_ASC_NODE": 58.7508, "ARG_OF_PERICENTER": 139.9514, "MEAN_ANOMALY": 287.3239, "EPHEMERIS_TYPE": 0, "CLASSIFICATION_TYPE": "U", "NORAD_CAT_ID": 30360, "ELEMENT_SET_NO": 999, "REV_AT_EPOCH": 97459, "BSTAR": 0.0011743981, "MEAN_MOTION_DOT": 2.802e-05, "MEAN_MOTION_DDOT": 0}, "tle": {"line1": "1 30360U 99025ABX 25349.14931418  .00002802  00000+0  11744-2 0  9991", "line2": "2 30360  98.7657  58.7508 0031305 139.9514 287.3239 14.26522705974595"}}, "geometry": {"type": "Point", "coordinates": [-123.28782532643265, -21.412851666700973]}}, {"type": "Feature", "properties": {"norad_id": 30361, "name": "FENGYUN 1C DEB", "group": "fengyun-1c-debris", "lat": -72.61962974623755, "lon": 55.218842872392166, "alt_km": 817.745957993604, "timestamp": "2025-12-16T13:52:37.799192+00:00", "meta": {"OBJECT_NAME": "FENGYUN 1C DEB", "OBJECT_ID": "1999-025ABY", "EPOCH": "2025-12-15T19:41:36.471264", "MEAN_MOTION": 14.25367349, "ECCENTRICITY": 0.0065088, "INCLINATION": 98.5697, "RA_OF_ASC_NODE": 25.6786, "ARG_OF_PERICENTER": 21.7306, "MEAN_ANOMALY": 338.6613, "EPHEMERIS_TYPE": 0, "CLASSIFICATION_TYPE": "U", "NORAD_CAT_ID": 30361, "ELEMENT_SET_NO": 999, "REV_AT_EPOCH": 97660, "BSTAR": 0.00069241392, "MEAN_MOTION_DOT": 1.626e-05, "MEAN_MOTION_DDOT": 0}, "tle": {"line1": "1 30361U 99025ABY 25349.82056101  .00001626  00000+0  69241-3 0  9993", "line2": "2 30361  98.5697  25.6786 0065088  21.7306 338.6613 14.25367349976601"}}, "geometry": {"type": "Point", "coordinates": [55.218842872392166, -72.61962974623755]}}, {"type": "Feature", "properties": {"norad_id": 30362, "name": "FENGYUN 1C DEB", "group": "fengyun-1c-debris", "lat": 71.92617973468093, "lon": 122.65361465721577, "alt_km": 892.5361263824925, "timestamp": "2025-12-16T13:52:37.799202+00:00", "meta": {"OBJECT_NAME": "FENGYUN 1C DEB", "OBJECT_ID": "1999-025ABZ", "EPOCH": "2025-12-15T18:40:15.732768", "MEAN_MOTION": 14.1185828, "ECCENTRICITY": 0.00957363, "INCLINATION": 99.0504, "RA_OF_ASC_NODE": 272.6108, "ARG_OF_PERICENTER": 335.33, "MEAN_ANOMALY": 24.3308, "EPHEMERIS_TYPE": 0, "CLASSIFICATION_TYPE": "U", "NORAD_CAT_ID": 30362, "ELEMENT_SET_NO": 999, "REV_AT_EPOCH": 96211, "BSTAR": 0.0018806028, "MEAN_MOTION_DOT": 3.54e-05, "MEAN_MOTION_DDOT": 0}, "tle": {"line1": "1 30362U 99025ABZ 25349.77795987  .00003540  00000+0  18806-2 0  9997", "line2": "2 30362  99.0504 272.6108 0095736 335.3300  24.3308 14.11858280962113"}}, "geometry": {"type": "Point", "coordinates": [122.65361465721577, 71.92617973468093]}}, {"type": "Feature", "properties": {"norad_id": 30363, "name": "FENGYUN 1C DEB", "group": "fengyun-1c-debris", "lat": 66.82772879349493, "lon": 39.95994753755447, "alt_km": 785.7279125427067, "timestamp": "2025-12-16T13:52:37.799212+00:00", "meta": {"OBJECT_NAME": "FENGYUN 1C DEB", "OBJECT_ID": "1999-025ACA", "EPOCH": "2025-12-15T15:31:38.619264", "MEAN_MOTION": 14.16893185, "ECCENTRICITY": 0.00789839, "INCLINATION": 99.0316, "RA_OF_ASC_NODE": 60.8284, "ARG_OF_PERICENTER": 30.849, "MEAN_ANOMALY": 329.729, "EPHEMERIS_TYPE": 0, "CLASSIFICATION_TYPE": "U", "NORAD_CAT_ID": 30363, "ELEMENT_SET_NO": 999, "REV_AT_EPOCH": 96865, "BSTAR": 0.0010853272, "MEAN_MOTION_DOT": 2.199e-05, "MEAN_MOTION_DDOT": 0}, "tle": {"line1": "1 30363U 99025ACA 25349.64697476  .00002199  00000+0  10853-2 0  9991", "line2": "2 30363  99.0316  60.8284 0078983  30.8490 329.7290 14.16893185968654"}}, "geometry": {"type": "Point", "coordinates": [39.95994753755447, 66.82772879349493]}}, {"type": "Feature", "properties": {"norad_id": 30364, "name": "FENGYUN 1C DEB", "group": "fengyun-1c-debris", "lat": -9.802184542009048, "lon": 85.18851045780747, "alt_km": 950.3568441710822, "timestamp": "2025-12-16T13:52:37.799222+00:00", "meta": {"OBJECT_NAME": "FENGYUN 1C DEB", "OBJECT_ID": "1999-025ACB", "EPOCH": "2025-12-14T05:46:56.235360", "MEAN_MOTION": 14.17153553, "ECCENTRICITY": 0.03322046, "INCLINATION": 98.1353, "RA_OF_ASC_NODE": 264.4605, "ARG_OF_PERICENTER": 316.0049, "MEAN_ANOMALY": 199.4531, "EPHEMERIS_TYPE": 0, "CLASSIFICATION_TYPE": "U", "NORAD_CAT_ID": 30364, "ELEMENT_SET_NO": 999, "REV_AT_EPOCH": 95662, "BSTAR": 0.0036674983, "MEAN_MOTION_DOT": 0.0001271, "MEAN_MOTION_DDOT": 0}, "tle": {"line1": "1 30364U 99025ACB 25348.24092865  .00012710  00000+0  36675-2 0  9998", "line2": "2 30364  98.1353 264.4605 0332204 316.0049 199.4531 14.17153553956626"}}, "geometry": {"type": "Point", "coordinates": [85.18851045780747, -9.802184542009048]}}, {"type": "Feature", "properties": {"norad_id": 30365, "name": "FENGYUN 1C DEB", "group": "fengyun-1c-debris", "lat": 52.63791179368558, "lon": -26.602040219064676, "alt_km": 739.0497389278971, "timestamp": "2025-12-16T13:52:37.799232+00:00", "meta": {"OBJECT_NAME": "FENGYUN 1C DEB", "OBJECT_ID": "1999-025ACC", "EPOCH": "2025-12-15T22:42:34.091424", "MEAN_MOTION": 14.192327, "ECCENTRICITY": 0.01680017, "INCLINATION": 98.6191, "RA_OF_ASC_NODE": 344.2411, "ARG_OF_PERICENTER": 102.2048, "MEAN_ANOMALY": 325.6059, "EPHEMERIS_TYPE": 0, "CLASSIFICATION_TYPE": "U", "NORAD_CAT_ID": 30365, "ELEMENT_SET_NO": 999, "REV_AT_EPOCH": 97658, "BSTAR": 0.00019117677, "MEAN_MOTION_DOT": 4.19e-06, "MEAN_MOTION_DDOT": 0}, "tle": {"line1": "1 30365U 99025ACC 25349.94622791  .00000419  00000+0  19118-3 0  9991", "line2": "2 30365  98.6191 344.2411 0168001 102.2048 325.6059 14.19232700976589"}}, "geometry": {"type": "Point", "coordinates": [-26.602040219064676, 52.63791179368558]}}, {"type": "Feature", "properties": {"norad_id": 30366, "name": "FENGYUN 1C DEB", "group": "fengyun-1c-debris", "lat": -19.65729797557493, "lon": -88.59804395662074, "alt_km": 814.8982461849437, "timestamp": "2025-12-16T13:52:37.799242+00:00", "meta": {"OBJECT_NAME": "FENGYUN 1C DEB", "OBJECT_ID": "1999-025ACD", "EPOCH": "2025-12-15T17:59:54.994848", "MEAN_MOTION": 14.33497565, "ECCENTRICITY": 0.00620686, "INCLINATION": 98.9233, "RA_OF_ASC_NODE": 267.3311, "ARG_OF_PERICENTER": 210.3461, "MEAN_ANOMALY": 177.3738, "EPHEMERIS_TYPE": 0, "CLASSIFICATION_TYPE": "U", "NORAD_CAT_ID": 30366, "ELEMENT_SET_NO": 999, "REV_AT_EPOCH": 98366, "BSTAR": 0.0004073053, "MEAN_MOTION_DOT": 1.103e-05, "MEAN_MOTION_DDOT": 0}, "tle": {"line1": "1 30366U 99025ACD 25349.74994207  .00001103  00000+0  40731-3 0  9990", "line2": "2 30366  98.9233 267.3311 0062068 210.3461 177.3738 14.33497565983661"}}, "geometry": {"type": "Point", "coordinates": [-88.59804395662074, -19.65729797557493]}}, {"type": "Feature", "properties": {"norad_id": 30368, "name": "FENGYUN 1C DEB", "group": "fengyun-1c-debris", "lat": 15.108752173076349, "lon": -81.13241641330146, "alt_km": 1073.5958896398397, "timestamp": "2025-12-16T13:52:37.799254+00:00", "meta": {"OBJECT_NAME": "FENGYUN 1C DEB", "OBJECT_ID": "1999-025ACF", "EPOCH": "2025-12-15T18:38:32.845920", "MEAN_MOTION": 13.7536851, "ECCENTRICITY": 0.01860987, "INCLINATION": 99.1885, "RA_OF_ASC_NODE": 95.5905, "ARG_OF_PERICENTER": 299.9883, "MEAN_ANOMALY": 220.0514, "EPHEMERIS_TYPE": 0, "CLASSIFICATION_TYPE": "U", "NORAD_CAT_ID": 30368, "ELEMENT_SET_NO": 999, "REV_AT_EPOCH": 94703, "BSTAR": 0.00046663878, "MEAN_MOTION_DOT": 4.64e-06, "MEAN_MOTION_DDOT": 0}, "tle": {"line1": "1 30368U 99025ACF 25349.77676905  .00000464  00000+0  46664-3 0  9997", "line2": "2 30368  99.1885  95.5905 0186098 299.9883 220.0514 13.75368510947031"}}, "geometry": {"type": "Point", "coordinates": [-81.13241641330146, 15.108752173076349]}}]}